STARLINK-2550           
1 48293U 21036T   26068.33460649  .00010862  00000+0  37817-3 0  9990
2 48293  53.1614  77.0573 0001440  84.7254 275.3911 15.30213398268353
AL MUNTHER              
1 63240U 25052AG  26068.64540749  .00017933  00000+0  65015-3 0  9992
2 63240  97.4001 323.9152 0008027 130.7043 229.4895 15.28381521 54798
